[{"OBJECT_NAME":"STARLINK-4362","OBJECT_ID":"2022-077A","EPOCH":"2026-03-09T23:25:33.150432","MEAN_MOTION":15.01261785,"ECCENTRICITY":0.00026308,"INCLINATION":97.6021,"RA_OF_ASC_NODE":250.5038,"ARG_OF_PERICENTER":62.7524,"MEAN_ANOMALY":297.3968,"EPHEMERIS_TYPE":0,"CLASSIFICATION_TYPE":"U","NORAD_CAT_ID":53043,"ELEMENT_SET_NO":999,"REV_AT_EPOCH":20096,"BSTAR":3.1779954e-5,"MEAN_MOTION_DOT":3.5e-6,"MEAN_MOTION_DDOT":0},{"OBJECT_NAME":"COSMOS 397 DEB","OBJECT_ID":"1971-015W","EPOCH":"2026-03-09T09:13:02.014176","MEAN_MOTION":13.36711819,"ECCENTRICITY":0.07571879,"INCLINATION":65.7345,"RA_OF_ASC_NODE":80.8462,"ARG_OF_PERICENTER":151.8854,"MEAN_ANOMALY":212.5334,"EPHEMERIS_TYPE":0,"CLASSIFICATION_TYPE":"U","NORAD_CAT_ID":5097,"ELEMENT_SET_NO":999,"REV_AT_EPOCH":62386,"BSTAR":0.00039228108,"MEAN_MOTION_DOT":1.028e-5,"MEAN_MOTION_DDOT":0}]
